{"fromPlaceList":[{"placeID":"3529","placeCode":"PNA","placeName":"PUNE","placeIDAndCodeAndPlaceName":"3529,PNA,PUNE"},{"placeID":"3785","placeCode":"MUM","placeName":"MUMBAI","placeIDAndCodeAndPlaceName":"3785,MUM,MUMBAI"},{"placeID":"7833","placeCode":"NAGP","placeName":"NAGPUR","placeIDAndCodeAndPlaceName":"7833,NAGP,NAGPUR"},{"placeID":"1552","placeCode":"SHRD","placeName":"SHIRDI","placeIDAndCodeAndPlaceName":"1552,SHRD,SHIRDI"},{"placeID":"376","placeCode":"DAMAN","placeName":"DAMAN","placeIDAndCodeAndPlaceName":"376,DAMAN,DAMAN"},{"placeID":"102","placeCode":"AGB","placeName":"AURANGABAD","placeIDAndCodeAndPlaceName":"102,AGB,AURANGABAD"},{"placeID":"2","placeCode":"SRT","placeName":"SURAT","placeIDAndCodeAndPlaceName":"2,SRT,SURAT"},{"placeID":"532","placeCode":"GND","placeName":"GANDHINAGAR","placeIDAndCodeAndPlaceName":"532,GND,GANDHINAGAR"},{"placeID":"1","placeCode":"ABD","placeName":"AHMEDABAD","placeIDAndCodeAndPlaceName":"1,ABD,AHMEDABAD"},{"placeID":"3354","placeCode":"MNG","placeName":"MANGALORE","placeIDAndCodeAndPlaceName":"3354,MNG,MANGALORE"},{"placeID":"158","placeCode":"BNG","placeName":"BANGALORE","placeIDAndCodeAndPlaceName":"158,BNG,BANGALORE"},{"placeID":"3605","placeCode":"HBL","placeName":"HUBLI","placeIDAndCodeAndPlaceName":"3605,HBL,HUBLI"},{"placeID":"3332","placeCode":"MYS","placeName":"MYSORE","placeIDAndCodeAndPlaceName":"3332,MYS,MYSORE"},{"placeID":"3910","placeCode":"CHE","placeName":"CHENNAI","placeIDAndCodeAndPlaceName":"3910,CHE,CHENNAI"},{"placeID":"4296","placeCode":"EKM","placeName":"KOCHI","placeIDAndCodeAndPlaceName":"4296,EKM,KOCHI"},{"placeID":"2953","placeCode":"COI","placeName":"COIMBATORE","placeIDAndCodeAndPlaceName":"2953,COI,COIMBATORE"},{"placeID":"3793","placeCode":"TRI","placeName":"THIRUVANANTHAPURAM","placeIDAndCodeAndPlaceName":"3793,TRI,THIRUVANANTHAPURAM"},{"placeID":"3020","placeCode":"TIP","placeName":"TIRUPATHI","placeIDAndCodeAndPlaceName":"3020,TIP,TIRUPATHI"},{"placeID":"6","placeCode":"MAD","placeName":"MADURAI","placeIDAndCodeAndPlaceName":"6,MAD,MADURAI"},{"placeID":"3134","placeCode":"OOT","placeName":"OOTY","placeIDAndCodeAndPlaceName":"3134,OOT,OOTY"},{"placeID":"2442","placeCode":"VJW","placeName":"VIJAYAWADA","placeIDAndCodeAndPlaceName":"2442,VJW,VIJAYAWADA"},{"placeID":"2443","placeCode":"VSP","placeName":"VISAKHAPATNAM","placeIDAndCodeAndPlaceName":"2443,VSP,VISAKHAPATNAM"},{"placeID":"8365","placeCode":"RAIP","placeName":"RAIPUR","placeIDAndCodeAndPlaceName":"8365,RAIP,RAIPUR"},{"placeID":"4282","placeCode":"JIPR","placeName":"JAIPUR","placeIDAndCodeAndPlaceName":"4282,JIPR,JAIPUR"},{"placeID":"721","placeCode":"JDP","placeName":"JODHPUR","placeIDAndCodeAndPlaceName":"721,JDP,JODHPUR"},{"placeID":"1699","placeCode":"UDP","placeName":"UDAIPUR","placeIDAndCodeAndPlaceName":"1699,UDP,UDAIPUR"},{"placeID":"7113","placeCode":"KTA","placeName":"KOTA","placeIDAndCodeAndPlaceName":"7113,KTA,KOTA"},{"placeID":"6257","placeCode":"GGN","placeName":"GURGAON","placeIDAndCodeAndPlaceName":"6257,GGN,GURGAON"},{"placeID":"4201","placeCode":"CHD","placeName":"CHANDIGARH","placeIDAndCodeAndPlaceName":"4201,CHD,CHANDIGARH"},{"placeID":"8915","placeCode":"SMIL","placeName":"SHIMLA","placeIDAndCodeAndPlaceName":"8915,SMIL,SHIMLA"},{"placeID":"4196","placeCode":"ASR","placeName":"AMRITSAR","placeIDAndCodeAndPlaceName":"4196,ASR,AMRITSAR"},{"placeID":"4280","placeCode":"JMU","placeName":"JAMMU","placeIDAndCodeAndPlaceName":"4280,JMU,JAMMU"},{"placeID":"7601","placeCode":"MRT","placeName":"MEERUT","placeIDAndCodeAndPlaceName":"7601,MRT,MEERUT"},{"placeID":"6275","placeCode":"GLOR","placeName":"GWALIOR","placeIDAndCodeAndPlaceName":"6275,GLOR,GWALIOR"},{"placeID":"4414","placeCode":"ALD","placeName":"ALLAHABAD","placeIDAndCodeAndPlaceName":"4414,ALD,ALLAHABAD"},{"placeID":"4737","placeCode":"LKO","placeName":"LUCKNOW","placeIDAndCodeAndPlaceName":"4737,LKO,LUCKNOW"},{"placeID":"4199","placeCode":"LDH","placeName":"LUDHIANA","placeIDAndCodeAndPlaceName":"4199,LDH,LUDHIANA"},{"placeID":"6809","placeCode":"KNP","placeName":"KANPUR","placeIDAndCodeAndPlaceName":"6809,KNP,KANPUR"},{"placeID":"4742","placeCode":"VNS","placeName":"VARANASI","placeIDAndCodeAndPlaceName":"4742,VNS,VARANASI"},{"placeID":"6343","placeCode":"HRW","placeName":"HARIDWAR","placeIDAndCodeAndPlaceName":"6343,HRW,HARIDWAR"},{"placeID":"10017","placeCode":"TSPTN","placeName":"PATNA","placeIDAndCodeAndPlaceName":"10017,TSPTN,PATNA"},{"placeID":"2349","placeCode":"RCH","placeName":"RANCHI","placeIDAndCodeAndPlaceName":"2349,RCH,RANCHI"},{"placeID":"2132","placeCode":"JSPR","placeName":"JAMSHEDPUR","placeIDAndCodeAndPlaceName":"2132,JSPR,JAMSHEDPUR"},{"placeID":"8521","placeCode":"RRK","placeName":"ROORKEE","placeIDAndCodeAndPlaceName":"8521,RRK,ROORKEE"},{"placeID":"2327","placeCode":"PURI","placeName":"PURI","placeIDAndCodeAndPlaceName":"2327,PURI,PURI"},{"placeID":"2144","placeCode":"JSGD","placeName":"JHARSUGUDA","placeIDAndCodeAndPlaceName":"2144,JSGD,JHARSUGUDA"},{"placeID":"2074","placeCode":"DPR","placeName":"DURGAPUR","placeIDAndCodeAndPlaceName":"2074,DPR,DURGAPUR"},{"placeID":"2195","placeCode":"KRGP","placeName":"KHARAGPUR","placeIDAndCodeAndPlaceName":"2195,KRGP,KHARAGPUR"},{"placeID":"1939","placeCode":"BLSOR","placeName":"BALASORE","placeIDAndCodeAndPlaceName":"1939,BLSOR,BALASORE"},{"placeID":"3517","placeCode":"PUU","placeName":"PONDICHERRY","placeIDAndCodeAndPlaceName":"3517,PUU,PONDICHERRY"},{"placeID":"3774","placeCode":"MNP","placeName":"MANIPAL","placeIDAndCodeAndPlaceName":"3774,MNP,MANIPAL"},{"placeID":"3880","placeCode":"GUT","placeName":"GUNTUR","placeIDAndCodeAndPlaceName":"3880,GUT,GUNTUR"},{"placeID":"4059","placeCode":"NLR","placeName":"NELLORE","placeIDAndCodeAndPlaceName":"4059,NLR,NELLORE"},{"placeID":"4593","placeCode":"ADY","placeName":"AYODHYA","placeIDAndCodeAndPlaceName":"4593,ADY,AYODHYA"},{"placeID":"496","placeCode":"DWK","placeName":"DWARKA","placeIDAndCodeAndPlaceName":"496,DWK,DWARKA"},{"placeID":"4347","placeCode":"AGR","placeName":"AGRA","placeIDAndCodeAndPlaceName":"4347,AGR,AGRA"},{"placeID":"3","placeCode":"BBSR","placeName":"BHUBANESWAR","placeIDAndCodeAndPlaceName":"3,BBSR,BHUBANESWAR"},{"placeID":"9619","placeCode":"TSBKO","placeName":"BOKARO","placeIDAndCodeAndPlaceName":"9619,TSBKO,BOKARO"},{"placeID":"3594","placeCode":"HYD","placeName":"HYDERABAD","placeIDAndCodeAndPlaceName":"3594,HYD,HYDERABAD"},{"placeID":"496","placeCode":"DWK","placeName":"DWARKA","placeIDAndCodeAndPlaceName":"496,DWK,DWARKA"},{"placeID":"9992","placeCode":"TSPGA","placeName":"PAIGA","placeIDAndCodeAndPlaceName":"9992,TSPGA,PAIGA"},{"placeID":"4125","placeCode":"ABM","placeName":"ABHYATHAMANGALA","placeIDAndCodeAndPlaceName":"4125,ABM,ABHYATHAMANGALA"},{"placeID":"9532","placeCode":"TSAMM","placeName":"ABIRAMAM","placeIDAndCodeAndPlaceName":"9532,TSAMM,ABIRAMAM"},{"placeID":"11309","placeCode":"894","placeName":"ABOHAR","placeIDAndCodeAndPlaceName":"11309,894,ABOHAR"},{"placeID":"13","placeCode":"ABR","placeName":"ABU ROAD","placeIDAndCodeAndPlaceName":"13,ABR,ABU ROAD"},{"placeID":"4092","placeCode":"APT","placeName":"ACHAMPET","placeIDAndCodeAndPlaceName":"4092,APT,ACHAMPET"},{"placeID":"3427","placeCode":"ACG","placeName":"ADICHUNCHANAGIRI","placeIDAndCodeAndPlaceName":"3427,ACG,ADICHUNCHANAGIRI"},{"placeID":"9514","placeCode":"TSADI","placeName":"ADILABAD","placeIDAndCodeAndPlaceName":"9514,TSADI,ADILABAD"},{"placeID":"18","placeCode":"ADPR","placeName":"ADIPUR","placeIDAndCodeAndPlaceName":"18,ADPR,ADIPUR"},{"placeID":"3746","placeCode":"ADM","placeName":"ADIVARAM","placeIDAndCodeAndPlaceName":"3746,ADM,ADIVARAM"},{"placeID":"3428","placeCode":"ADI","placeName":"ADONI","placeIDAndCodeAndPlaceName":"3428,ADI,ADONI"},{"placeID":"3270","placeCode":"ADO","placeName":"ADOOR","placeIDAndCodeAndPlaceName":"3270,ADO,ADOOR"},{"placeID":"3625","placeCode":"AUL","placeName":"ADUL","placeIDAndCodeAndPlaceName":"3625,AUL,ADUL"},{"placeID":"3186","placeCode":"ADU","placeName":"ADUTHURAI","placeIDAndCodeAndPlaceName":"3186,ADU,ADUTHURAI"},{"placeID":"4347","placeCode":"AGR","placeName":"AGRA","placeIDAndCodeAndPlaceName":"4347,AGR,AGRA"},{"placeID":"4368","placeCode":"AHMDP","placeName":"AHMEDPUR","placeIDAndCodeAndPlaceName":"4368,AHMDP,AHMEDPUR"},{"placeID":"4383","placeCode":"AJMR","placeName":"AJMER","placeIDAndCodeAndPlaceName":"4383,AJMR,AJMER"},{"placeID":"4407","placeCode":"ALG","placeName":"ALIGARH","placeIDAndCodeAndPlaceName":"4407,ALG,ALIGARH"},{"placeID":"4414","placeCode":"ALD","placeName":"ALLAHABAD","placeIDAndCodeAndPlaceName":"4414,ALD,ALLAHABAD"},{"placeID":"3405","placeCode":"ALE","placeName":"ALLEPPY","placeIDAndCodeAndPlaceName":"3405,ALE,ALLEPPY"},{"placeID":"4207","placeCode":"AMB","placeName":"AMBALA","placeIDAndCodeAndPlaceName":"4207,AMB,AMBALA"},{"placeID":"4196","placeCode":"ASR","placeName":"AMRITSAR","placeIDAndCodeAndPlaceName":"4196,ASR,AMRITSAR"},{"placeID":"67","placeCode":"AND","placeName":"ANAND","placeIDAndCodeAndPlaceName":"67,AND,ANAND"},{"placeID":"102","placeCode":"AGB","placeName":"AURANGABAD","placeIDAndCodeAndPlaceName":"102,AGB,AURANGABAD"},{"placeID":"4593","placeCode":"ADY","placeName":"AYODHYA","placeIDAndCodeAndPlaceName":"4593,ADY,AYODHYA"},{"placeID":"4594","placeCode":"AZM","placeName":"AZAMGARH","placeIDAndCodeAndPlaceName":"4594,AZM,AZAMGARH"},{"placeID":"1939","placeCode":"BLSOR","placeName":"BALASORE","placeIDAndCodeAndPlaceName":"1939,BLSOR,BALASORE"},{"placeID":"4905","placeCode":"BE","placeName":"BAREILLY","placeIDAndCodeAndPlaceName":"4905,BE,BAREILLY"},{"placeID":"172","placeCode":"BRD","placeName":"BARODA","placeIDAndCodeAndPlaceName":"172,BRD,BARODA"},{"placeID":"4739","placeCode":"BST","placeName":"BASTI","placeIDAndCodeAndPlaceName":"4739,BST,BASTI"},{"placeID":"3979","placeCode":"BLR","placeName":"BELLARY","placeIDAndCodeAndPlaceName":"3979,BLR,BELLARY"},{"placeID":"1982","placeCode":"BNA","placeName":"BHAWANIPATNA","placeIDAndCodeAndPlaceName":"1982,BNA,BHAWANIPATNA"},{"placeID":"9529","placeCode":"TSBHI","placeName":"BHILAI","placeIDAndCodeAndPlaceName":"9529,TSBHI,BHILAI"},{"placeID":"246","placeCode":"BSVL","placeName":"BHUSAVAL","placeIDAndCodeAndPlaceName":"246,BSVL,BHUSAVAL"},{"placeID":"9616","placeCode":"TSBKN","placeName":"BIKANER","placeIDAndCodeAndPlaceName":"9616,TSBKN,BIKANER"},{"placeID":"9619","placeCode":"TSBKO","placeName":"BOKARO","placeIDAndCodeAndPlaceName":"9619,TSBKO,BOKARO"},{"placeID":"4290","placeCode":"KOH","placeName":"CALICUT","placeIDAndCodeAndPlaceName":"4290,KOH,CALICUT"},{"placeID":"4201","placeCode":"CHD","placeName":"CHANDIGARH","placeIDAndCodeAndPlaceName":"4201,CHD,CHANDIGARH"},{"placeID":"3910","placeCode":"CHE","placeName":"CHENNAI","placeIDAndCodeAndPlaceName":"3910,CHE,CHENNAI"},{"placeID":"4293","placeCode":"EKM","placeName":"COCHIN","placeIDAndCodeAndPlaceName":"4293,EKM,COCHIN"},{"placeID":"2953","placeCode":"COI","placeName":"COIMBATORE","placeIDAndCodeAndPlaceName":"2953,COI,COIMBATORE"},{"placeID":"4","placeCode":"CTK","placeName":"CUTTACK","placeIDAndCodeAndPlaceName":"4,CTK,CUTTACK"},{"placeID":"7778","placeCode":"MBR","placeName":"MURADABAD","placeIDAndCodeAndPlaceName":"7778,MBR,MURADABAD"},{"placeID":"7797","placeCode":"MSS","placeName":"MUSSOORIE","placeIDAndCodeAndPlaceName":"7797,MSS,MUSSOORIE"},{"placeID":"3332","placeCode":"MYS","placeName":"MYSORE","placeIDAndCodeAndPlaceName":"3332,MYS,MYSORE"},{"placeID":"9962","placeCode":"TSNAI","placeName":"NAINITAL","placeIDAndCodeAndPlaceName":"9962,TSNAI,NAINITAL"},{"placeID":"7996","placeCode":"NDA","placeName":"NOIDA","placeIDAndCodeAndPlaceName":"7996,NDA,NOIDA"},{"placeID":"4198","placeCode":"PTA","placeName":"PATIALA","placeIDAndCodeAndPlaceName":"4198,PTA,PATIALA"},{"placeID":"1359","placeCode":"RJT","placeName":"RAJKOT","placeIDAndCodeAndPlaceName":"1359,RJT,RAJKOT"},{"placeID":"2349","placeCode":"RCH","placeName":"RANCHI","placeIDAndCodeAndPlaceName":"2349,RCH,RANCHI"},{"placeID":"1413","placeCode":"RIL","placeName":"RELIANCE","placeIDAndCodeAndPlaceName":"1413,RIL,RELIANCE"},{"placeID":"8496","placeCode":"RSK","placeName":"RISHIKESH","placeIDAndCodeAndPlaceName":"8496,RSK,RISHIKESH"},{"placeID":"8515","placeCode":"RHTK","placeName":"ROHTAK","placeIDAndCodeAndPlaceName":"8515,RHTK,ROHTAK"},{"placeID":"3646","placeCode":"SHK","placeName":"SRIHARIKOTA","placeIDAndCodeAndPlaceName":"3646,SHK,SRIHARIKOTA"},{"placeID":"2931","placeCode":"TRI","placeName":"TRICHY","placeIDAndCodeAndPlaceName":"2931,TRI,TRICHY"},{"placeID":"3682","placeCode":"KAI","placeName":"KARAIKAL","placeIDAndCodeAndPlaceName":"3682,KAI,KARAIKAL"},{"placeID":"9501","placeCode":"PUDU","placeName":"PUDUKOTTAI","placeIDAndCodeAndPlaceName":"9501,PUDU,PUDUKOTTAI"},{"placeID":"3041","placeCode":"DIN","placeName":"DINDIGUL","placeIDAndCodeAndPlaceName":"3041,DIN,DINDIGUL"},{"placeID":"3114","placeCode":"PRY","placeName":"PERIYAKULAM","placeIDAndCodeAndPlaceName":"3114,PRY,PERIYAKULAM"},{"placeID":"3092","placeCode":"RAJ","placeName":"RAJAPALAYAM","placeIDAndCodeAndPlaceName":"3092,RAJ,RAJAPALAYAM"},{"placeID":"2958","placeCode":"KOV","placeName":"KOVILPATTI","placeIDAndCodeAndPlaceName":"2958,KOV,KOVILPATTI"},{"placeID":"3048","placeCode":"RAM","placeName":"RAMESWARAM","placeIDAndCodeAndPlaceName":"3048,RAM,RAMESWARAM"},{"placeID":"6","placeCode":"MAD","placeName":"MADURAI","placeIDAndCodeAndPlaceName":"6,MAD,MADURAI"},{"placeID":"2953","placeCode":"COI","placeName":"COIMBATORE","placeIDAndCodeAndPlaceName":"2953,COI,COIMBATORE"},{"placeID":"3172","placeCode":"DHR","placeName":"DHARAPURAM","placeIDAndCodeAndPlaceName":"3172,DHR,DHARAPURAM"},{"placeID":"4135","placeCode":"MNR","placeName":"MUNNAR","placeIDAndCodeAndPlaceName":"4135,MNR,MUNNAR"},{"placeID":"3571","placeCode":"TRC","placeName":"THRISSUR","placeIDAndCodeAndPlaceName":"3571,TRC,THRISSUR"},{"placeID":"2996","placeCode":"SAL","placeName":"SALEM","placeIDAndCodeAndPlaceName":"2996,SAL,SALEM"},{"placeID":"2999","placeCode":"ERO","placeName":"ERODE","placeIDAndCodeAndPlaceName":"2999,ERO,ERODE"},{"placeID":"2970","placeCode":"VEL","placeName":"VELLORE","placeIDAndCodeAndPlaceName":"2970,VEL,VELLORE"},{"placeID":"3333","placeCode":"MDY","placeName":"MANDYA","placeIDAndCodeAndPlaceName":"3333,MDY,MANDYA"},{"placeID":"3046","placeCode":"DHA","placeName":"DHARMAPURI","placeIDAndCodeAndPlaceName":"3046,DHA,DHARMAPURI"},{"placeID":"3786","placeCode":"TVL","placeName":"TIRUVANNAMALAI","placeIDAndCodeAndPlaceName":"3786,TVL,TIRUVANNAMALAI"},{"placeID":"3029","placeCode":"CUD","placeName":"CUDDALORE","placeIDAndCodeAndPlaceName":"3029,CUD,CUDDALORE"},{"placeID":"3180","placeCode":"MYL","placeName":"MAYILADUTHURAI","placeIDAndCodeAndPlaceName":"3180,MYL,MAYILADUTHURAI"},{"placeID":"2933","placeCode":"TIU","placeName":"TIRUNELVELI","placeIDAndCodeAndPlaceName":"2933,TIU,TIRUNELVELI"},{"placeID":"3325","placeCode":"THK","placeName":"THOOTHUKUDI","placeIDAndCodeAndPlaceName":"3325,THK,THOOTHUKUDI"},{"placeID":"3155","placeCode":"EKM","placeName":"ERNAKULAM","placeIDAndCodeAndPlaceName":"3155,EKM,ERNAKULAM"},{"placeID":"4296","placeCode":"EKM","placeName":"KOCHI","placeIDAndCodeAndPlaceName":"4296,EKM,KOCHI"},{"placeID":"3180","placeCode":"MYL","placeName":"MAYILADUTHURAI","placeIDAndCodeAndPlaceName":"3180,MYL,MAYILADUTHURAI"},{"placeID":"3158","placeCode":"POL","placeName":"POLLACHI","placeIDAndCodeAndPlaceName":"3158,POL,POLLACHI"},{"placeID":"9480","placeCode":"PALD","placeName":"PALAKKAD","placeIDAndCodeAndPlaceName":"9480,PALD,PALAKKAD"},{"placeID":"2958","placeCode":"KOV","placeName":"KOVILPATTI","placeIDAndCodeAndPlaceName":"2958,KOV,KOVILPATTI"},{"placeID":"9848","placeCode":"TKOVV","placeName":"KOVVURU","placeIDAndCodeAndPlaceName":"9848,TKOVV,KOVVURU"},{"placeID":"3052","placeCode":"KDI","placeName":"KARAIKUDI","placeIDAndCodeAndPlaceName":"3052,KDI,KARAIKUDI"},{"placeID":"3979","placeCode":"BLR","placeName":"BELLARY","placeIDAndCodeAndPlaceName":"3979,BLR,BELLARY"},{"placeID":"3990","placeCode":"BLU","placeName":"BELLUR","placeIDAndCodeAndPlaceName":"3990,BLU,BELLUR"},{"placeID":"3465","placeCode":"SMG","placeName":"SHIMOGA","placeIDAndCodeAndPlaceName":"3465,SMG,SHIMOGA"},{"placeID":"3891","placeCode":"CDG","placeName":"CHITRADURGA","placeIDAndCodeAndPlaceName":"3891,CDG,CHITRADURGA"},{"placeID":"3937","placeCode":"HDP","placeName":"HINDUPUR","placeIDAndCodeAndPlaceName":"3937,HDP,HINDUPUR"}]}